CAS-2T & KS-1Q          
1 41847U 16066G   21153.44719145  .00000081  00000-0  23492-4 0  9993
2 41847  98.6019 212.5132 0364044 265.1829  90.7708 14.38191201239723
NAYIF-1 (EO-88)         
1 42017U 17008BX  21153.43499699  .00002297  00000-0  86436-4 0  9996
2 42017  97.3160 221.3037 0006891 148.4736 211.6918 15.28120597238963
ZHUHAI-1 02 (CAS-4B)    
1 42759U 17034B   21153.54166183  .00000394  00000-0  37040-4 0  9992
2 42759  43.0176 263.0608 0007892  64.0404   2.2399 15.10215257218891
ZHUHAI-1 01 (CAS-4A)    
1 42761U 17034D   21153.59016111  .00000501  00000-0  43365-4 0  9992
2 42761  43.0182 261.8628 0007978  67.8803 306.8344 15.10301893218905
MAX VALIER SAT          
1 42778U 17036P   21152.86990347  .00001374  00000-0  60269-4 0  9994
2 42778  97.2559 201.9912 0010559 224.7973 135.2413 15.23573100218912
RADFXSAT (FOX-1B)       
1 43017U 17073E   21152.64363146  .00000921  00000-0  76270-4 0  9995
2 43017  97.7082  57.2551 0254932 352.3448   7.3903 14.79539030190787
FOX-1D (AO-92)          
1 43137U 18004AC  21153.44036734  .00001440  00000-0  60208-4 0  9993
2 43137  97.4070 227.6249 0007121 262.5311  97.5118 15.25219560188363
DIWATA-2B               
1 43678U 18084H   21153.42842859 -.00000156  00000-0 -97504-5 0  9997
2 43678  97.9218 278.6319 0011366  98.5954 261.6564 14.91747038141199
ES'HAIL 2               
1 43700U 18090A   21152.84518562  .00000135  00000-0  00000-0 0  9991
2 43700   0.0122 298.8501 0001389 155.4023 126.3618  1.00274234  9217
FOX-1CLIFF (AO-95)      
1 43770U 18099N   21153.46061155  .00000505  00000-0  50852-4 0  9992
2 43770  97.6651 223.9785 0016040 106.9176 253.3805 14.95313301136213
ITASAT 1                
1 43786U 18099AE  21153.44967240  .00000037  00000-0  84406-5 0  9990
2 43786  97.6671 224.6354 0016619 100.4753 259.8341 14.95609384136242
JY1SAT (JO-97)          
1 43803U 18099AX  21153.41601201  .00000882  00000-0  83811-4 0  9995
2 43803  97.6636 224.3559 0016825 100.4711 259.8407 14.95856483136247
UWE-4                   
1 43880U 18111E   21153.47654153  .00000545  00000-0  52555-4 0  9992
2 43880  97.6875  61.4642 0012954 148.5789 211.6209 14.96856049130842
PSAT2 (NO-104)          
1 44354U 19036R   21153.46786677  .00011148  00000-0  14528-3 0  9990
2 44354  28.5257 226.9241 0327313 113.5753 249.9565 15.13150308106690
BRICSAT2 (NO-103)       
1 44355U 19036S   21153.46001067  .00027208  00000-0  30029-3 0  9992
2 44355  28.5237 184.3267 0266753 182.9708 176.9300 15.28737016107122
JAISAT-1                
1 44419U 19038F   21153.43460518  .00001351  00000-0  78368-4 0  9992
2 44419  97.5873 118.1924 0021380   8.9688 351.1921 15.13733638105527
DUCHIFAT-3              
1 44854U 19089C   21153.47778680  .00000402  00000-0  38541-4 0  9992
2 44854  36.9646 189.1972 0008574  10.1973 349.8930 14.99488564 80858
RS-44 & BREEZE-KM R/B   
1 44909U 19096E   21152.67837676  .00000036  00000-0  91698-4 0  9998
2 44909  82.5189 123.2938 0218231 129.7762 232.2785 12.79709985 66806
ORBITAL FACTORY 2 (OF-2)
1 45113U 19071C   21153.56869163  .00002413  00000-0  79360-4 0  9997
2 45113  51.6418 109.6764 0011227 238.9459 121.0422 15.35680409 74887
HUSKYSAT-1 (HO-107)     
1 45119U 19071J   21153.32008195  .00001903  00000-0  64870-4 0  9990
2 45119  51.6415 110.2620 0010654 234.3116 125.6876 15.35712952 74840
BY70-2                  
1 45857U 20042B   21153.13140736  .00001519  00000-0  22280-3 0  9997
2 45857  97.9837 229.0380 0009150 260.7542  99.2643 14.76994255 49287
SALSAT                  
1 46495U 20068K   21152.88717317  .00000422  00000-0  35418-4 0  9990
2 46495  97.6945  90.4755 0018612 122.2483 238.0546 15.03458042 36997
BY70-3                  
1 46839U 20079N   21153.57469953  .00002640  00000-0  83632-4 0  9996
2 46839  97.2403 227.7250 0005200 256.4591 212.3189 15.33594239 31926
RADFXSAT-2 (AO-109)     
1 47311U 21002C   21152.25914588  .00000733  00000-0  43909-4 0  9996
2 47311  60.6860 351.8201 0034282  39.3919 320.9651 15.21614914 20403
UVSQ-SAT                
1 47438U 21006AB  21152.84099945  .00001054  00000-0  63060-4 0  9993
2 47438  97.4880 214.3438 0013720 146.2175 213.9933 15.13109147 19695
DIY-1 (ARDUIQUBE)       
1 47963U 21022AH  21153.49055289  .00002131  00000-0  14520-3 0  9992
2 47963  97.5590  56.0884 0020003   1.2545 358.8729 15.07183437  9649
